[{"OBJECT_NAME":"STARLINK-30122","OBJECT_ID":"2023-067A","EPOCH":"2025-11-14T00:26:36.887136","MEAN_MOTION":15.02513484,"ECCENTRICITY":6.228e-5,"INCLINATION":43.0025,"RA_OF_ASC_NODE":183.5069,"ARG_OF_PERICENTER":265.6548,"MEAN_ANOMALY":94.4223,"EPHEMERIS_TYPE":0,"CLASSIFICATION_TYPE":"U","NORAD_CAT_ID":56688,"ELEMENT_SET_NO":999,"REV_AT_EPOCH":13832,"BSTAR":-0.00022485033,"MEAN_MOTION_DOT":-3.237e-5,"MEAN_MOTION_DDOT":0},{"OBJECT_NAME":"STARLINK-30129","OBJECT_ID":"2023-067B","EPOCH":"2025-11-14T00:12:12.743712","MEAN_MOTION":15.02515533,"ECCENTRICITY":0.00012032,"INCLINATION":43.0022,"RA_OF_ASC_NODE":183.4408,"ARG_OF_PERICENTER":262.133,"MEAN_ANOMALY":97.9376,"EPHEMERIS_TYPE":0,"CLASSIFICATION_TYPE":"U","NORAD_CAT_ID":56689,"ELEMENT_SET_NO":999,"REV_AT_EPOCH":13825,"BSTAR":-0.00025783347,"MEAN_MOTION_DOT":-3.683e-5,"MEAN_MOTION_DDOT":0},{"OBJECT_NAME":"STARLINK-30124","OBJECT_ID":"2023-067C","EPOCH":"2025-11-14T00:07:25.737600","MEAN_MOTION":15.02526277,"ECCENTRICITY":0.00017897,"INCLINATION":43.0027,"RA_OF_ASC_NODE":183.4237,"ARG_OF_PERICENTER":258.9513,"MEAN_ANOMALY":101.1128,"EPHEMERIS_TYPE":0,"CLASSIFICATION_TYPE":"U","NORAD_CAT_ID":56690,"ELEMENT_SET_NO":999,"REV_AT_EPOCH":13825,"BSTAR":-8.2099293e-5,"MEAN_MOTION_DOT":-1.312e-5,"MEAN_MOTION_DDOT":0},{"OBJECT_NAME":"STARLINK-30036","OBJECT_ID":"2023-067E","EPOCH":"2025-11-13T23:57:50.126112","MEAN_MOTION":15.0251743,"ECCENTRICITY":9.42e-5,"INCLINATION":43.002,"RA_OF_ASC_NODE":183.391,"ARG_OF_PERICENTER":269.9949,"MEAN_ANOMALY":90.0785,"EPHEMERIS_TYPE":0,"CLASSIFICATION_TYPE":"U","NORAD_CAT_ID":56692,"ELEMENT_SET_NO":999,"REV_AT_EPOCH":13712,"BSTAR":-0.00024851035,"MEAN_MOTION_DOT":-3.557e-5,"MEAN_MOTION_DDOT":0},{"OBJECT_NAME":"STARLINK-30067","OBJECT_ID":"2023-067F","EPOCH":"2025-11-13T23:48:15.266304","MEAN_MOTION":15.02516169,"ECCENTRICITY":6.366e-5,"INCLINATION":43.0023,"RA_OF_ASC_NODE":183.3415,"ARG_OF_PERICENTER":294.0956,"MEAN_ANOMALY":65.9819,"EPHEMERIS_TYPE":0,"CLASSIFICATION_TYPE":"U","NORAD_CAT_ID":56693,"ELEMENT_SET_NO":999,"REV_AT_EPOCH":13825,"BSTAR":-4.6158207e-5,"MEAN_MOTION_DOT":-8.27e-6,"MEAN_MOTION_DDOT":0},{"OBJECT_NAME":"STARLINK-30126","OBJECT_ID":"2023-067G","EPOCH":"2025-11-13T23:53:00.277440","MEAN_MOTION":15.0254111,"ECCENTRICITY":0.00014767,"INCLINATION":43.0011,"RA_OF_ASC_NODE":183.3662,"ARG_OF_PERICENTER":269.9905,"MEAN_ANOMALY":90.0769,"EPHEMERIS_TYPE":0,"CLASSIFICATION_TYPE":"U","NORAD_CAT_ID":56694,"ELEMENT_SET_NO":999,"REV_AT_EPOCH":13825,"BSTAR":9.1269711e-5,"MEAN_MOTION_DOT":1.03e-5,"MEAN_MOTION_DDOT":0},{"OBJECT_NAME":"STARLINK-30121","OBJECT_ID":"2023-067H","EPOCH":"2025-11-13T23:43:26.869152","MEAN_MOTION":15.02517696,"ECCENTRICITY":0.00010429,"INCLINATION":43.001,"RA_OF_ASC_NODE":183.2943,"ARG_OF_PERICENTER":264.1094,"MEAN_ANOMALY":95.963,"EPHEMERIS_TYPE":0,"CLASSIFICATION_TYPE":"U","NORAD_CAT_ID":56695,"ELEMENT_SET_NO":999,"REV_AT_EPOCH":13825,"BSTAR":-0.0003501159,"MEAN_MOTION_DOT":-4.927e-5,"MEAN_MOTION_DDOT":0},{"OBJECT_NAME":"STARLINK-30130","OBJECT_ID":"2023-067K","EPOCH":"2025-11-14T00:40:49.300896","MEAN_MOTION":15.02494393,"ECCENTRICITY":0.00014817,"INCLINATION":43.0016,"RA_OF_ASC_NODE":182.7514,"ARG_OF_PERICENTER":264.6016,"MEAN_ANOMALY":95.4657,"EPHEMERIS_TYPE":0,"CLASSIFICATION_TYPE":"U","NORAD_CAT_ID":56697,"ELEMENT_SET_NO":999,"REV_AT_EPOCH":13800,"BSTAR":-0.00024413025,"MEAN_MOTION_DOT":-3.496e-5,"MEAN_MOTION_DDOT":0},{"OBJECT_NAME":"STARLINK-30068","OBJECT_ID":"2023-067L","EPOCH":"2025-11-13T23:15:03.132864","MEAN_MOTION":15.0252031,"ECCENTRICITY":0.00015216,"INCLINATION":43.0025,"RA_OF_ASC_NODE":170.174,"ARG_OF_PERICENTER":288.694,"MEAN_ANOMALY":71.3737,"EPHEMERIS_TYPE":0,"CLASSIFICATION_TYPE":"U","NORAD_CAT_ID":56698,"ELEMENT_SET_NO":999,"REV_AT_EPOCH":13814,"BSTAR":-0.00027056295,"MEAN_MOTION_DOT":-3.855e-5,"MEAN_MOTION_DDOT":0},{"OBJECT_NAME":"STARLINK-30127","OBJECT_ID":"2023-067M","EPOCH":"2025-11-13T23:38:37.405824","MEAN_MOTION":15.02553468,"ECCENTRICITY":0.000253,"INCLINATION":43.0059,"RA_OF_ASC_NODE":183.2859,"ARG_OF_PERICENTER":248.1963,"MEAN_ANOMALY":111.8611,"EPHEMERIS_TYPE":0,"CLASSIFICATION_TYPE":"U","NORAD_CAT_ID":56699,"ELEMENT_SET_NO":999,"REV_AT_EPOCH":13825,"BSTAR":-2.5289309e-5,"MEAN_MOTION_DOT":-5.46e-6,"MEAN_MOTION_DDOT":0},{"OBJECT_NAME":"STARLINK-30053","OBJECT_ID":"2023-067N","EPOCH":"2025-11-13T23:33:50.537952","MEAN_MOTION":15.02535676,"ECCENTRICITY":0.00012335,"INCLINATION":43.0021,"RA_OF_ASC_NODE":183.268,"ARG_OF_PERICENTER":253.8842,"MEAN_ANOMALY":106.1865,"EPHEMERIS_TYPE":0,"CLASSIFICATION_TYPE":"U","NORAD_CAT_ID":56700,"ELEMENT_SET_NO":999,"REV_AT_EPOCH":13825,"BSTAR":1.31868e-6,"MEAN_MOTION_DOT":-1.86e-6,"MEAN_MOTION_DDOT":0},{"OBJECT_NAME":"STARLINK-30125","OBJECT_ID":"2023-067P","EPOCH":"2025-11-14T01:04:46.965792","MEAN_MOTION":15.02545661,"ECCENTRICITY":0.00010102,"INCLINATION":43.0023,"RA_OF_ASC_NODE":182.8814,"ARG_OF_PERICENTER":298.9481,"MEAN_ANOMALY":61.126,"EPHEMERIS_TYPE":0,"CLASSIFICATION_TYPE":"U","NORAD_CAT_ID":56701,"ELEMENT_SET_NO":999,"REV_AT_EPOCH":13826,"BSTAR":6.5604381e-5,"MEAN_MOTION_DOT":6.83e-6,"MEAN_MOTION_DDOT":0},{"OBJECT_NAME":"STARLINK-30117","OBJECT_ID":"2023-067Q","EPOCH":"2025-11-14T01:57:31.252608","MEAN_MOTION":15.02511183,"ECCENTRICITY":0.00012825,"INCLINATION":43.0013,"RA_OF_ASC_NODE":183.0874,"ARG_OF_PERICENTER":283.5225,"MEAN_ANOMALY":76.5474,"EPHEMERIS_TYPE":0,"CLASSIFICATION_TYPE":"U","NORAD_CAT_ID":56702,"ELEMENT_SET_NO":999,"REV_AT_EPOCH":13826,"BSTAR":-0.00038180827,"MEAN_MOTION_DOT":-5.354e-5,"MEAN_MOTION_DDOT":0},{"OBJECT_NAME":"STARLINK-30132","OBJECT_ID":"2023-067R","EPOCH":"2025-11-13T15:25:36.662016","MEAN_MOTION":15.02525378,"ECCENTRICITY":0.0001359,"INCLINATION":43.0013,"RA_OF_ASC_NODE":185.0152,"ARG_OF_PERICENTER":260.1379,"MEAN_ANOMALY":99.931,"EPHEMERIS_TYPE":0,"CLASSIFICATION_TYPE":"U","NORAD_CAT_ID":56703,"ELEMENT_SET_NO":999,"REV_AT_EPOCH":13820,"BSTAR":-0.0001573,"MEAN_MOTION_DOT":-2.327e-5,"MEAN_MOTION_DDOT":0},{"OBJECT_NAME":"STARLINK-30066","OBJECT_ID":"2023-067S","EPOCH":"2025-11-14T00:31:13.518336","MEAN_MOTION":15.02530505,"ECCENTRICITY":0.00010405,"INCLINATION":43.002,"RA_OF_ASC_NODE":182.6878,"ARG_OF_PERICENTER":246.8046,"MEAN_ANOMALY":113.2687,"EPHEMERIS_TYPE":0,"CLASSIFICATION_TYPE":"U","NORAD_CAT_ID":56704,"ELEMENT_SET_NO":999,"REV_AT_EPOCH":13826,"BSTAR":5.6268617e-5,"MEAN_MOTION_DOT":5.57e-6,"MEAN_MOTION_DDOT":0},{"OBJECT_NAME":"STARLINK-30080","OBJECT_ID":"2023-067T","EPOCH":"2025-11-14T00:45:59.308416","MEAN_MOTION":15.02539976,"ECCENTRICITY":5.512e-5,"INCLINATION":42.9977,"RA_OF_ASC_NODE":169.8522,"ARG_OF_PERICENTER":134.6367,"MEAN_ANOMALY":225.452,"EPHEMERIS_TYPE":0,"CLASSIFICATION_TYPE":"U","NORAD_CAT_ID":56705,"ELEMENT_SET_NO":999,"REV_AT_EPOCH":13841,"BSTAR":-5.4728013e-5,"MEAN_MOTION_DOT":-9.43e-6,"MEAN_MOTION_DDOT":0},{"OBJECT_NAME":"STARLINK-30079","OBJECT_ID":"2023-067U","EPOCH":"2025-11-13T15:16:01.852320","MEAN_MOTION":15.02528039,"ECCENTRICITY":0.000113,"INCLINATION":43.0011,"RA_OF_ASC_NODE":184.9714,"ARG_OF_PERICENTER":275.7077,"MEAN_ANOMALY":84.3637,"EPHEMERIS_TYPE":0,"CLASSIFICATION_TYPE":"U","NORAD_CAT_ID":56706,"ELEMENT_SET_NO":999,"REV_AT_EPOCH":13820,"BSTAR":-0.00032565,"MEAN_MOTION_DOT":-4.599e-5,"MEAN_MOTION_DDOT":0},{"OBJECT_NAME":"STARLINK-30070","OBJECT_ID":"2023-067V","EPOCH":"2025-11-13T15:20:49.729344","MEAN_MOTION":15.02522238,"ECCENTRICITY":0.0001451,"INCLINATION":43.0057,"RA_OF_ASC_NODE":184.9954,"ARG_OF_PERICENTER":272.631,"MEAN_ANOMALY":87.4366,"EPHEMERIS_TYPE":0,"CLASSIFICATION_TYPE":"U","NORAD_CAT_ID":56707,"ELEMENT_SET_NO":999,"REV_AT_EPOCH":13820,"BSTAR":2.122e-5,"MEAN_MOTION_DOT":8.3e-7,"MEAN_MOTION_DDOT":0},{"OBJECT_NAME":"STARLINK-30071","OBJECT_ID":"2023-067W","EPOCH":"2025-11-14T00:36:01.648512","MEAN_MOTION":15.02516932,"ECCENTRICITY":0.00011146,"INCLINATION":43.0041,"RA_OF_ASC_NODE":182.7245,"ARG_OF_PERICENTER":280.5212,"MEAN_ANOMALY":79.5505,"EPHEMERIS_TYPE":0,"CLASSIFICATION_TYPE":"U","NORAD_CAT_ID":56708,"ELEMENT_SET_NO":999,"REV_AT_EPOCH":13826,"BSTAR":-7.0655038e-5,"MEAN_MOTION_DOT":-1.157e-5,"MEAN_MOTION_DDOT":0},{"OBJECT_NAME":"STARLINK-30085","OBJECT_ID":"2023-067X","EPOCH":"2025-11-14T00:45:38.142144","MEAN_MOTION":15.02515886,"ECCENTRICITY":4.735e-5,"INCLINATION":43.0007,"RA_OF_ASC_NODE":182.7785,"ARG_OF_PERICENTER":43.5627,"MEAN_ANOMALY":316.5253,"EPHEMERIS_TYPE":0,"CLASSIFICATION_TYPE":"U","NORAD_CAT_ID":56709,"ELEMENT_SET_NO":999,"REV_AT_EPOCH":13800,"BSTAR":-0.00016017873,"MEAN_MOTION_DOT":-2.365e-5,"MEAN_MOTION_DDOT":0},{"OBJECT_NAME":"STARLINK-6197","OBJECT_ID":"2023-078A","EPOCH":"2025-11-14T06:41:31.380288","MEAN_MOTION":15.11169982,"ECCENTRICITY":0.00092474,"INCLINATION":69.9938,"RA_OF_ASC_NODE":288.0563,"ARG_OF_PERICENTER":293.3482,"MEAN_ANOMALY":66.6711,"EPHEMERIS_TYPE":0,"CLASSIFICATION_TYPE":"U","NORAD_CAT_ID":56767,"ELEMENT_SET_NO":999,"REV_AT_EPOCH":13508,"BSTAR":0.00044958211,"MEAN_MOTION_DOT":7.469e-5,"MEAN_MOTION_DDOT":0},{"OBJECT_NAME":"STARLINK-6198","OBJECT_ID":"2023-078B","EPOCH":"2025-11-14T04:07:02.700192","MEAN_MOTION":14.98331457,"ECCENTRICITY":0.00029259,"INCLINATION":70.0005,"RA_OF_ASC_NODE":255.5778,"ARG_OF_PERICENTER":266.8302,"MEAN_ANOMALY":93.2522,"EPHEMERIS_TYPE":0,"CLASSIFICATION_TYPE":"U","NORAD_CAT_ID":56768,"ELEMENT_SET_NO":999,"REV_AT_EPOCH":13587,"BSTAR":-6.2059321e-5,"MEAN_MOTION_DOT":-8.33e-6,"MEAN_MOTION_DDOT":0},{"OBJECT_NAME":"STARLINK-6342","OBJECT_ID":"2023-078D","EPOCH":"2025-11-14T07:20:16.702368","MEAN_MOTION":14.98296713,"ECCENTRICITY":0.00031785,"INCLINATION":69.9993,"RA_OF_ASC_NODE":295.3818,"ARG_OF_PERICENTER":272.7727,"MEAN_ANOMALY":87.3069,"EPHEMERIS_TYPE":0,"CLASSIFICATION_TYPE":"U","NORAD_CAT_ID":56770,"ELEMENT_SET_NO":999,"REV_AT_EPOCH":13490,"BSTAR":-0.00051435567,"MEAN_MOTION_DOT":-6.22e-5,"MEAN_MOTION_DDOT":0}]
